[{"OBJECT_NAME":"STARLINK-36909","OBJECT_ID":"2026-037Q","EPOCH":"2026-03-21T22:00:00.999936","MEAN_MOTION":15.69717645,"ECCENTRICITY":0.00012116,"INCLINATION":42.9994,"RA_OF_ASC_NODE":123.6549,"ARG_OF_PERICENTER":281.7423,"MEAN_ANOMALY":225.7199,"EPHEMERIS_TYPE":0,"CLASSIFICATION_TYPE":"U","NORAD_CAT_ID":67946,"ELEMENT_SET_NO":999,"REV_AT_EPOCH":516,"BSTAR":-0.017833493,"MEAN_MOTION_DOT":-0.01933211,"MEAN_MOTION_DDOT":0},{"OBJECT_NAME":"STARLINK-36920","OBJECT_ID":"2026-037R","EPOCH":"2026-03-21T22:00:00.999936","MEAN_MOTION":15.58562435,"ECCENTRICITY":0.00014177,"INCLINATION":42.9996,"RA_OF_ASC_NODE":124.0723,"ARG_OF_PERICENTER":269.3251,"MEAN_ANOMALY":70.4691,"EPHEMERIS_TYPE":0,"CLASSIFICATION_TYPE":"U","NORAD_CAT_ID":67947,"ELEMENT_SET_NO":999,"REV_AT_EPOCH":516,"BSTAR":-0.027631488,"MEAN_MOTION_DOT":-0.01917487,"MEAN_MOTION_DDOT":0},{"OBJECT_NAME":"STARLINK-36873","OBJECT_ID":"2026-037S","EPOCH":"2026-03-21T22:00:00.999936","MEAN_MOTION":15.57318371,"ECCENTRICITY":0.00013292,"INCLINATION":42.9997,"RA_OF_ASC_NODE":124.125,"ARG_OF_PERICENTER":267.1134,"MEAN_ANOMALY":51.1107,"EPHEMERIS_TYPE":0,"CLASSIFICATION_TYPE":"U","NORAD_CAT_ID":67948,"ELEMENT_SET_NO":999,"REV_AT_EPOCH":516,"BSTAR":-0.029038639,"MEAN_MOTION_DOT":-0.01921314,"MEAN_MOTION_DDOT":0},{"OBJECT_NAME":"STARLINK-36863","OBJECT_ID":"2026-037T","EPOCH":"2026-03-21T22:00:00.999936","MEAN_MOTION":15.61893191,"ECCENTRICITY":0.00014289,"INCLINATION":42.9996,"RA_OF_ASC_NODE":123.8965,"ARG_OF_PERICENTER":279.1006,"MEAN_ANOMALY":131.5811,"EPHEMERIS_TYPE":0,"CLASSIFICATION_TYPE":"U","NORAD_CAT_ID":67949,"ELEMENT_SET_NO":999,"REV_AT_EPOCH":516,"BSTAR":-0.02463365,"MEAN_MOTION_DOT":-0.01941894,"MEAN_MOTION_DDOT":0},{"OBJECT_NAME":"STARLINK-36887","OBJECT_ID":"2026-037U","EPOCH":"2026-03-21T22:00:00.999936","MEAN_MOTION":15.5049972,"ECCENTRICITY":0.00013634,"INCLINATION":42.9993,"RA_OF_ASC_NODE":124.6938,"ARG_OF_PERICENTER":273.805,"MEAN_ANOMALY":175.0114,"EPHEMERIS_TYPE":0,"CLASSIFICATION_TYPE":"U","NORAD_CAT_ID":67950,"ELEMENT_SET_NO":999,"REV_AT_EPOCH":516,"BSTAR":0.0013844441,"MEAN_MOTION_DOT":0.00081496,"MEAN_MOTION_DDOT":0},{"OBJECT_NAME":"STARLINK-36897","OBJECT_ID":"2026-037V","EPOCH":"2026-03-21T22:00:00.999936","MEAN_MOTION":15.6086519,"ECCENTRICITY":0.00015278,"INCLINATION":42.9994,"RA_OF_ASC_NODE":123.9194,"ARG_OF_PERICENTER":273.1059,"MEAN_ANOMALY":127.9184,"EPHEMERIS_TYPE":0,"CLASSIFICATION_TYPE":"U","NORAD_CAT_ID":67951,"ELEMENT_SET_NO":999,"REV_AT_EPOCH":516,"BSTAR":-0.025529321,"MEAN_MOTION_DOT":-0.0193422,"MEAN_MOTION_DDOT":0},{"OBJECT_NAME":"STARLINK-36381","OBJECT_ID":"2026-037W","EPOCH":"2026-03-21T22:00:00.999936","MEAN_MOTION":15.59360683,"ECCENTRICITY":0.00016204,"INCLINATION":42.9994,"RA_OF_ASC_NODE":123.9687,"ARG_OF_PERICENTER":273.2725,"MEAN_ANOMALY":108.1905,"EPHEMERIS_TYPE":0,"CLASSIFICATION_TYPE":"U","NORAD_CAT_ID":67952,"ELEMENT_SET_NO":999,"REV_AT_EPOCH":516,"BSTAR":-0.026450063,"MEAN_MOTION_DOT":-0.01895663,"MEAN_MOTION_DDOT":0},{"OBJECT_NAME":"STARLINK-36824","OBJECT_ID":"2026-037X","EPOCH":"2026-03-21T22:00:00.999936","MEAN_MOTION":15.5057571,"ECCENTRICITY":0.00013339,"INCLINATION":42.999,"RA_OF_ASC_NODE":124.5335,"ARG_OF_PERICENTER":282.1097,"MEAN_ANOMALY":231.0527,"EPHEMERIS_TYPE":0,"CLASSIFICATION_TYPE":"U","NORAD_CAT_ID":67953,"ELEMENT_SET_NO":999,"REV_AT_EPOCH":516,"BSTAR":-0.00071373242,"MEAN_MOTION_DOT":-0.00041983,"MEAN_MOTION_DDOT":0},{"OBJECT_NAME":"STARLINK-36869","OBJECT_ID":"2026-037Y","EPOCH":"2026-03-21T22:00:00.999936","MEAN_MOTION":15.50508558,"ECCENTRICITY":0.00014974,"INCLINATION":42.9991,"RA_OF_ASC_NODE":124.5255,"ARG_OF_PERICENTER":299.8611,"MEAN_ANOMALY":216.1049,"EPHEMERIS_TYPE":0,"CLASSIFICATION_TYPE":"U","NORAD_CAT_ID":67954,"ELEMENT_SET_NO":999,"REV_AT_EPOCH":516,"BSTAR":0.0009410141,"MEAN_MOTION_DOT":0.00055114,"MEAN_MOTION_DDOT":0},{"OBJECT_NAME":"STARLINK-36872","OBJECT_ID":"2026-037Z","EPOCH":"2026-03-21T22:00:00.999936","MEAN_MOTION":15.63138228,"ECCENTRICITY":0.00013716,"INCLINATION":42.9993,"RA_OF_ASC_NODE":123.7674,"ARG_OF_PERICENTER":280.9174,"MEAN_ANOMALY":180.6406,"EPHEMERIS_TYPE":0,"CLASSIFICATION_TYPE":"U","NORAD_CAT_ID":67955,"ELEMENT_SET_NO":999,"REV_AT_EPOCH":516,"BSTAR":-0.023444901,"MEAN_MOTION_DOT":-0.01941421,"MEAN_MOTION_DDOT":0},{"OBJECT_NAME":"STARLINK-36918","OBJECT_ID":"2026-037AA","EPOCH":"2026-03-21T22:00:00.999936","MEAN_MOTION":15.59695534,"ECCENTRICITY":0.00016974,"INCLINATION":42.9996,"RA_OF_ASC_NODE":123.9085,"ARG_OF_PERICENTER":274.4089,"MEAN_ANOMALY":130.6837,"EPHEMERIS_TYPE":0,"CLASSIFICATION_TYPE":"U","NORAD_CAT_ID":67956,"ELEMENT_SET_NO":999,"REV_AT_EPOCH":516,"BSTAR":-0.026099214,"MEAN_MOTION_DOT":-0.01894975,"MEAN_MOTION_DDOT":0},{"OBJECT_NAME":"STARLINK-36829","OBJECT_ID":"2026-037AB","EPOCH":"2026-03-21T22:00:00.999936","MEAN_MOTION":15.56307001,"ECCENTRICITY":0.00013441,"INCLINATION":42.9996,"RA_OF_ASC_NODE":124.1044,"ARG_OF_PERICENTER":262.831,"MEAN_ANOMALY":63.3682,"EPHEMERIS_TYPE":0,"CLASSIFICATION_TYPE":"U","NORAD_CAT_ID":67957,"ELEMENT_SET_NO":999,"REV_AT_EPOCH":516,"BSTAR":-0.03013484,"MEAN_MOTION_DOT":-0.01919436,"MEAN_MOTION_DDOT":0},{"OBJECT_NAME":"STARLINK-36799","OBJECT_ID":"2026-037AC","EPOCH":"2026-03-21T22:00:00.999936","MEAN_MOTION":15.6561468,"ECCENTRICITY":0.00010466,"INCLINATION":42.9993,"RA_OF_ASC_NODE":123.6533,"ARG_OF_PERICENTER":275.9625,"MEAN_ANOMALY":231.6986,"EPHEMERIS_TYPE":0,"CLASSIFICATION_TYPE":"U","NORAD_CAT_ID":67958,"ELEMENT_SET_NO":999,"REV_AT_EPOCH":516,"BSTAR":-0.021347254,"MEAN_MOTION_DOT":-0.01950946,"MEAN_MOTION_DDOT":0},{"OBJECT_NAME":"STARLINK-36834","OBJECT_ID":"2026-037AD","EPOCH":"2026-03-21T22:00:00.999936","MEAN_MOTION":15.56083861,"ECCENTRICITY":0.00016948,"INCLINATION":42.9994,"RA_OF_ASC_NODE":124.062,"ARG_OF_PERICENTER":269.7939,"MEAN_ANOMALY":72.9156,"EPHEMERIS_TYPE":0,"CLASSIFICATION_TYPE":"U","NORAD_CAT_ID":67959,"ELEMENT_SET_NO":999,"REV_AT_EPOCH":516,"BSTAR":-0.030253387,"MEAN_MOTION_DOT":-0.01912154,"MEAN_MOTION_DDOT":0},{"OBJECT_NAME":"STARLINK-36841","OBJECT_ID":"2026-037AE","EPOCH":"2026-03-21T22:00:00.999936","MEAN_MOTION":15.5705549,"ECCENTRICITY":0.00015845,"INCLINATION":42.9996,"RA_OF_ASC_NODE":124.0193,"ARG_OF_PERICENTER":268.4697,"MEAN_ANOMALY":91.395,"EPHEMERIS_TYPE":0,"CLASSIFICATION_TYPE":"U","NORAD_CAT_ID":67960,"ELEMENT_SET_NO":999,"REV_AT_EPOCH":516,"BSTAR":-0.028918751,"MEAN_MOTION_DOT":-0.01897776,"MEAN_MOTION_DDOT":0},{"OBJECT_NAME":"STARLINK-36912","OBJECT_ID":"2026-038A","EPOCH":"2026-03-21T22:00:00.999936","MEAN_MOTION":15.51183263,"ECCENTRICITY":0.00016366,"INCLINATION":97.2856,"RA_OF_ASC_NODE":91.7437,"ARG_OF_PERICENTER":76.5866,"MEAN_ANOMALY":359.5584,"EPHEMERIS_TYPE":0,"CLASSIFICATION_TYPE":"U","NORAD_CAT_ID":67961,"ELEMENT_SET_NO":999,"REV_AT_EPOCH":516,"BSTAR":-0.041186909,"MEAN_MOTION_DOT":-0.02132749,"MEAN_MOTION_DDOT":0}]
