STARLINK-36909          
1 67946U 26037Q   26080.91667824 -.01933211  00000+0 -17833-1 0  9993
2 67946  42.9994 123.6549 0001211 281.7423 225.7199 15.69717645  5161
STARLINK-36920          
1 67947U 26037R   26080.91667824 -.01917487  00000+0 -27631-1 0  9998
2 67947  42.9996 124.0723 0001417 269.3251  70.4691 15.58562435  5167
STARLINK-36873          
1 67948U 26037S   26080.91667824 -.01921314  00000+0 -29039-1 0  9997
2 67948  42.9997 124.1250 0001329 267.1134  51.1107 15.57318371  5168
STARLINK-36863          
1 67949U 26037T   26080.91667824 -.01941894  00000+0 -24634-1 0  9999
2 67949  42.9996 123.8965 0001428 279.1006 131.5811 15.61893191  5166
STARLINK-36887          
1 67950U 26037U   26080.91667824  .00081496  00000+0  13844-2 0  9993
2 67950  42.9993 124.6938 0001363 273.8050 175.0114 15.50499720  5169
STARLINK-36897          
1 67951U 26037V   26080.91667824 -.01934220  00000+0 -25529-1 0  9991
2 67951  42.9994 123.9194 0001527 273.1059 127.9184 15.60865190  5163
STARLINK-36381          
1 67952U 26037W   26080.91667824 -.01895663  00000+0 -26450-1 0  9993
2 67952  42.9994 123.9687 0001620 273.2725 108.1905 15.59360683  5163
STARLINK-36824          
1 67953U 26037X   26080.91667824 -.00041983  00000+0 -71373-3 0  9997
2 67953  42.9990 124.5335 0001333 282.1097 231.0527 15.50575710  5165
STARLINK-36869          
1 67954U 26037Y   26080.91667824  .00055114  00000+0  94101-3 0  9991
2 67954  42.9991 124.5255 0001497 299.8611 216.1049 15.50508558  5165
STARLINK-36872          
1 67955U 26037Z   26080.91667824 -.01941421  00000+0 -23445-1 0  9991
2 67955  42.9993 123.7674 0001371 280.9174 180.6406 15.63138228  5169
STARLINK-36918          
1 67956U 26037AA  26080.91667824 -.01894975  00000+0 -26099-1 0  9991
2 67956  42.9996 123.9085 0001697 274.4089 130.6837 15.59695534  5161
STARLINK-36829          
1 67957U 26037AB  26080.91667824 -.01919436  00000+0 -30135-1 0  9998
2 67957  42.9996 124.1044 0001344 262.8310  63.3682 15.56307001  5163
STARLINK-36799          
1 67958U 26037AC  26080.91667824 -.01950946  00000+0 -21347-1 0  9995
2 67958  42.9993 123.6533 0001046 275.9625 231.6986 15.65614680  5162
STARLINK-36834          
1 67959U 26037AD  26080.91667824 -.01912154  00000+0 -30253-1 0  9991
2 67959  42.9994 124.0620 0001694 269.7939  72.9156 15.56083861  5160
STARLINK-36841          
1 67960U 26037AE  26080.91667824 -.01897776  00000+0 -28919-1 0  9991
2 67960  42.9996 124.0193 0001584 268.4697  91.3950 15.57055490  5169
STARLINK-36912          
1 67961U 26038A   26080.91667824 -.02132749  00000+0 -41187-1 0  9998
2 67961  97.2856  91.7437 0001636  76.5866 359.5584 15.51183263  5169
